0 FENGYUN 1C DEB
1 30248U 99025XH  13282.50249471  .00002579  00000-0  15923-2 0   288
2 30248 099.1564 285.0120 0072097 168.3312 343.5164 14.05001292343897
0 FENGYUN 1C DEB
1 30248U 99025XH  13285.67712481  .00001951  00000-0  12116-2 0   290
2 30248 099.1577 288.2152 0071624 159.8890 200.4789 14.05009607344334
0 FENGYUN 1C DEB
1 30248U 99025XH  13285.96778301  .00002735  00000-0  16861-2 0   309
2 30248 099.1561 288.5098 0072198 158.8979 230.8461 14.05013251344371
0 FENGYUN 1C DEB
1 30248U 99025XH  13287.96681321  .00004080  00000-0  25010-2 0   318
2 30248 099.1558 290.5275 0072233 153.4406 261.9895 14.05024568344653
0 FENGYUN 1C DEB
1 30248U 99025XH  13289.48181986  .00003613  00000-0  22174-2 0   329
2 30248 099.1557 292.0562 0072299 149.2788 005.0187 14.05035050344879
0 FENGYUN 1C DEB
1 30248U 99025XH  13290.95918013  .00003540  00000-0  21727-2 0   335
2 30248 099.1559 293.5466 0072321 145.2290 277.6749 14.05044548345076
0 FENGYUN 1C DEB
1 30248U 99025XH  13292.47281756  .00003570  00000-0  21903-2 0   341
2 30248 099.1565 295.0737 0072373 141.0436 013.9125 14.05054462345293
0 FENGYUN 1C DEB
1 30248U 99025XH  13293.66592205  .00003682  00000-0  22580-2 0   354
2 30248 099.1567 296.2772 0072379 137.7221 288.9022 14.05062123345458
0 FENGYUN 1C DEB
1 30248U 99025XH  13294.94694437  .00003773  00000-0  23127-2 0   366
2 30248 099.1572 297.5700 0072309 134.1270 288.6654 14.05070032345633
